[{"OBJECT_NAME":"STARLINK-2225","OBJECT_ID":"2021-041X","EPOCH":"2026-03-10T00:00:02.999808","MEAN_MOTION":15.27069763,"ECCENTRICITY":0.00014642,"INCLINATION":53.1456,"RA_OF_ASC_NODE":99.5289,"ARG_OF_PERICENTER":89.1304,"MEAN_ANOMALY":151.4925,"EPHEMERIS_TYPE":0,"CLASSIFICATION_TYPE":"U","NORAD_CAT_ID":48574,"ELEMENT_SET_NO":999,"REV_AT_EPOCH":574,"BSTAR":0.059549049,"MEAN_MOTION_DOT":0.01753094,"MEAN_MOTION_DDOT":0},{"OBJECT_NAME":"TRANSPORTER-1 OBJECT AA","OBJECT_ID":"2021-006AA","EPOCH":"2026-03-09T22:58:14.761920","MEAN_MOTION":15.29982294,"ECCENTRICITY":0.00086604,"INCLINATION":97.2381,"RA_OF_ASC_NODE":112.457,"ARG_OF_PERICENTER":185.709,"MEAN_ANOMALY":174.4054,"EPHEMERIS_TYPE":0,"CLASSIFICATION_TYPE":"U","NORAD_CAT_ID":47437,"ELEMENT_SET_NO":999,"REV_AT_EPOCH":28414,"BSTAR":0.0002197941,"MEAN_MOTION_DOT":6.312e-5,"MEAN_MOTION_DDOT":0}]
